[{"OBJECT_NAME":"STARLINK-35888","OBJECT_ID":"2025-303AD","EPOCH":"2026-03-09T01:01:27.560640","MEAN_MOTION":15.27564498,"ECCENTRICITY":7.004e-5,"INCLINATION":42.994,"RA_OF_ASC_NODE":314.5842,"ARG_OF_PERICENTER":284.7454,"MEAN_ANOMALY":75.332,"EPHEMERIS_TYPE":0,"CLASSIFICATION_TYPE":"U","NORAD_CAT_ID":67190,"ELEMENT_SET_NO":999,"REV_AT_EPOCH":1263,"BSTAR":0.0012225527,"MEAN_MOTION_DOT":0.00033517,"MEAN_MOTION_DDOT":0},{"OBJECT_NAME":"COSMOS 1975","OBJECT_ID":"1988-093A","EPOCH":"2026-03-09T14:15:08.474112","MEAN_MOTION":15.28069249,"ECCENTRICITY":0.0012117,"INCLINATION":82.5181,"RA_OF_ASC_NODE":117.7814,"ARG_OF_PERICENTER":163.8427,"MEAN_ANOMALY":196.3201,"EPHEMERIS_TYPE":0,"CLASSIFICATION_TYPE":"U","NORAD_CAT_ID":19573,"ELEMENT_SET_NO":999,"REV_AT_EPOCH":1939,"BSTAR":0.0002787,"MEAN_MOTION_DOT":7.676e-5,"MEAN_MOTION_DDOT":0}]
